[{"OBJECT_NAME":"STARLINK-5008","OBJECT_ID":"2022-119AT","EPOCH":"2024-07-18T01:46:03.594144","MEAN_MOTION":15.08844652,"ECCENTRICITY":0.0001078,"INCLINATION":53.2153,"RA_OF_ASC_NODE":120.9001,"ARG_OF_PERICENTER":68.0381,"MEAN_ANOMALY":292.0726,"EPHEMERIS_TYPE":0,"CLASSIFICATION_TYPE":"U","NORAD_CAT_ID":53927,"ELEMENT_SET_NO":999,"REV_AT_EPOCH":10095,"BSTAR":-0.00016115,"MEAN_MOTION_DOT":-2.852e-5,"MEAN_MOTION_DDOT":0},{"OBJECT_NAME":"STARLINK-5009","OBJECT_ID":"2022-119AU","EPOCH":"2024-07-18T01:33:29.530368","MEAN_MOTION":15.08834715,"ECCENTRICITY":0.0001492,"INCLINATION":53.2176,"RA_OF_ASC_NODE":115.8475,"ARG_OF_PERICENTER":106.3413,"MEAN_ANOMALY":253.7743,"EPHEMERIS_TYPE":0,"CLASSIFICATION_TYPE":"U","NORAD_CAT_ID":53928,"ELEMENT_SET_NO":999,"REV_AT_EPOCH":10102,"BSTAR":-5.0493e-5,"MEAN_MOTION_DOT":-1.091e-5,"MEAN_MOTION_DDOT":0},{"OBJECT_NAME":"STARLINK-5018","OBJECT_ID":"2022-119AV","EPOCH":"2024-07-18T04:17:54.418848","MEAN_MOTION":15.08838857,"ECCENTRICITY":0.0001146,"INCLINATION":53.2177,"RA_OF_ASC_NODE":125.8031,"ARG_OF_PERICENTER":92.5786,"MEAN_ANOMALY":267.5338,"EPHEMERIS_TYPE":0,"CLASSIFICATION_TYPE":"U","NORAD_CAT_ID":53929,"ELEMENT_SET_NO":999,"REV_AT_EPOCH":10089,"BSTAR":6.3821e-5,"MEAN_MOTION_DOT":7.28e-6,"MEAN_MOTION_DDOT":0},{"OBJECT_NAME":"STARLINK-5010","OBJECT_ID":"2022-119AW","EPOCH":"2024-07-18T04:23:02.446944","MEAN_MOTION":15.08838501,"ECCENTRICITY":0.0001593,"INCLINATION":53.2179,"RA_OF_ASC_NODE":115.1496,"ARG_OF_PERICENTER":114.73,"MEAN_ANOMALY":245.3858,"EPHEMERIS_TYPE":0,"CLASSIFICATION_TYPE":"U","NORAD_CAT_ID":53930,"ELEMENT_SET_NO":999,"REV_AT_EPOCH":10104,"BSTAR":3.9266e-5,"MEAN_MOTION_DOT":3.37e-6,"MEAN_MOTION_DDOT":0},{"OBJECT_NAME":"STARLINK-5015","OBJECT_ID":"2022-119AX","EPOCH":"2024-07-18T04:10:26.387328","MEAN_MOTION":15.08840328,"ECCENTRICITY":0.0001241,"INCLINATION":53.2165,"RA_OF_ASC_NODE":110.1174,"ARG_OF_PERICENTER":88.7523,"MEAN_ANOMALY":271.3611,"EPHEMERIS_TYPE":0,"CLASSIFICATION_TYPE":"U","NORAD_CAT_ID":53931,"ELEMENT_SET_NO":999,"REV_AT_EPOCH":10111,"BSTAR":4.9464e-5,"MEAN_MOTION_DOT":4.99e-6,"MEAN_MOTION_DDOT":0},{"OBJECT_NAME":"STARLINK-4772","OBJECT_ID":"2022-119AY","EPOCH":"2024-07-18T00:22:40.345536","MEAN_MOTION":15.08815046,"ECCENTRICITY":0.0001053,"INCLINATION":53.216,"RA_OF_ASC_NODE":111.2523,"ARG_OF_PERICENTER":98.9532,"MEAN_ANOMALY":261.158,"EPHEMERIS_TYPE":0,"CLASSIFICATION_TYPE":"U","NORAD_CAT_ID":53932,"ELEMENT_SET_NO":999,"REV_AT_EPOCH":10108,"BSTAR":1.3327e-5,"MEAN_MOTION_DOT":-7.6e-7,"MEAN_MOTION_DDOT":0},{"OBJECT_NAME":"STARLINK-4782","OBJECT_ID":"2022-119AZ","EPOCH":"2024-07-18T04:38:57.633504","MEAN_MOTION":15.08836547,"ECCENTRICITY":0.0001164,"INCLINATION":53.217,"RA_OF_ASC_NODE":115.2222,"ARG_OF_PERICENTER":81.7402,"MEAN_ANOMALY":278.3722,"EPHEMERIS_TYPE":0,"CLASSIFICATION_TYPE":"U","NORAD_CAT_ID":53933,"ELEMENT_SET_NO":999,"REV_AT_EPOCH":10104,"BSTAR":2.3542e-5,"MEAN_MOTION_DOT":8.7e-7,"MEAN_MOTION_DDOT":0},{"OBJECT_NAME":"STARLINK-4775","OBJECT_ID":"2022-119BA","EPOCH":"2024-07-18T00:17:20.960160","MEAN_MOTION":15.0882155,"ECCENTRICITY":0.0001019,"INCLINATION":53.2171,"RA_OF_ASC_NODE":111.2293,"ARG_OF_PERICENTER":98.2325,"MEAN_ANOMALY":261.8783,"EPHEMERIS_TYPE":0,"CLASSIFICATION_TYPE":"U","NORAD_CAT_ID":53934,"ELEMENT_SET_NO":999,"REV_AT_EPOCH":10108,"BSTAR":-0.00018523,"MEAN_MOTION_DOT":-3.233e-5,"MEAN_MOTION_DDOT":0},{"OBJECT_NAME":"STARLINK-5000","OBJECT_ID":"2022-119BB","EPOCH":"2024-07-18T03:02:55.513824","MEAN_MOTION":15.08824588,"ECCENTRICITY":0.0001545,"INCLINATION":53.2168,"RA_OF_ASC_NODE":100.5356,"ARG_OF_PERICENTER":203.0418,"MEAN_ANOMALY":157.0505,"EPHEMERIS_TYPE":0,"CLASSIFICATION_TYPE":"U","NORAD_CAT_ID":53935,"ELEMENT_SET_NO":999,"REV_AT_EPOCH":10124,"BSTAR":-0.00018134,"MEAN_MOTION_DOT":-3.172e-5,"MEAN_MOTION_DDOT":0},{"OBJECT_NAME":"STARLINK-4791","OBJECT_ID":"2022-119BC","EPOCH":"2024-07-18T01:10:16.732992","MEAN_MOTION":15.08814529,"ECCENTRICITY":8.71e-5,"INCLINATION":53.216,"RA_OF_ASC_NODE":110.746,"ARG_OF_PERICENTER":90.9054,"MEAN_ANOMALY":269.2037,"EPHEMERIS_TYPE":0,"CLASSIFICATION_TYPE":"U","NORAD_CAT_ID":53936,"ELEMENT_SET_NO":999,"REV_AT_EPOCH":10109,"BSTAR":-0.00064952,"MEAN_MOTION_DOT":-0.00010602,"MEAN_MOTION_DDOT":0},{"OBJECT_NAME":"STARLINK-4765","OBJECT_ID":"2022-119BD","EPOCH":"2024-07-18T03:10:12.314208","MEAN_MOTION":15.0884367,"ECCENTRICITY":0.0001131,"INCLINATION":53.2178,"RA_OF_ASC_NODE":105.5792,"ARG_OF_PERICENTER":102.0805,"MEAN_ANOMALY":258.0314,"EPHEMERIS_TYPE":0,"CLASSIFICATION_TYPE":"U","NORAD_CAT_ID":53937,"ELEMENT_SET_NO":999,"REV_AT_EPOCH":10117,"BSTAR":6.6207e-5,"MEAN_MOTION_DOT":7.66e-6,"MEAN_MOTION_DDOT":0}]
