STARLINK-5008           
1 53927U 22119AT  24200.07365271 -.00002852  00000+0 -16115-3 0  9995
2 53927  53.2153 120.9001 0001078  68.0381 292.0726 15.08844652100958
STARLINK-5009           
1 53928U 22119AU  24200.06492512 -.00001091  00000+0 -50493-4 0  9996
2 53928  53.2176 115.8475 0001492 106.3413 253.7743 15.08834715101025
STARLINK-5018           
1 53929U 22119AV  24200.17910207  .00000728  00000+0  63821-4 0  9998
2 53929  53.2177 125.8031 0001146  92.5786 267.5338 15.08838857100899
STARLINK-5010           
1 53930U 22119AW  24200.18266721  .00000337  00000+0  39266-4 0  9998
2 53930  53.2179 115.1496 0001593 114.7300 245.3858 15.08838501101040
STARLINK-5015           
1 53931U 22119AX  24200.17391652  .00000499  00000+0  49464-4 0  9990
2 53931  53.2165 110.1174 0001241  88.7523 271.3611 15.08840328101115
STARLINK-4772           
1 53932U 22119AY  24200.01574474 -.00000076  00000+0  13327-4 0  9990
2 53932  53.2160 111.2523 0001053  98.9532 261.1580 15.08815046101082
STARLINK-4782           
1 53933U 22119AZ  24200.19372261  .00000087  00000+0  23542-4 0  9991
2 53933  53.2170 115.2222 0001164  81.7402 278.3722 15.08836547101046
STARLINK-4775           
1 53934U 22119BA  24200.01204815 -.00003233  00000+0 -18523-3 0  9992
2 53934  53.2171 111.2293 0001019  98.2325 261.8783 15.08821550101084
STARLINK-5000           
1 53935U 22119BB  24200.12703141 -.00003172  00000+0 -18134-3 0  9991
2 53935  53.2168 100.5356 0001545 203.0418 157.0505 15.08824588101245
STARLINK-4791           
1 53936U 22119BC  24200.04880478 -.00010602  00000+0 -64952-3 0  9997
2 53936  53.2160 110.7460 0000871  90.9054 269.2037 15.08814529101090
STARLINK-4765           
1 53937U 22119BD  24200.13208697  .00000766  00000+0  66207-4 0  9999
2 53937  53.2178 105.5792 0001131 102.0805 258.0314 15.08843670101171
